[{"OBJECT_NAME":"AAC-AIS-SAT2","OBJECT_ID":"2023-084BY","EPOCH":"2026-03-09T22:09:39.097152","MEAN_MOTION":14.84898245,"ECCENTRICITY":0.00584087,"INCLINATION":98.1313,"RA_OF_ASC_NODE":206.6441,"ARG_OF_PERICENTER":61.4701,"MEAN_ANOMALY":299.2376,"EPHEMERIS_TYPE":0,"CLASSIFICATION_TYPE":"U","NORAD_CAT_ID":56996,"ELEMENT_SET_NO":999,"REV_AT_EPOCH":13864,"BSTAR":0.00055032793,"MEAN_MOTION_DOT":4.769e-5,"MEAN_MOTION_DDOT":0},{"OBJECT_NAME":"NOAA 16 DEB","OBJECT_ID":"2000-055RS","EPOCH":"2026-03-09T07:59:02.761440","MEAN_MOTION":14.73662317,"ECCENTRICITY":0.00068262,"INCLINATION":98.8474,"RA_OF_ASC_NODE":211.1901,"ARG_OF_PERICENTER":302.1036,"MEAN_ANOMALY":57.9506,"EPHEMERIS_TYPE":0,"CLASSIFICATION_TYPE":"U","NORAD_CAT_ID":42374,"ELEMENT_SET_NO":999,"REV_AT_EPOCH":51402,"BSTAR":0.0063333394,"MEAN_MOTION_DOT":0.00041508,"MEAN_MOTION_DDOT":0}]
